NORAD_CAT_ID,OBJECT_NAME,OBJECT_TYPE,EPOCH,MEAN_MOTION,ECCENTRICITY,INCLINATION,RA_OF_ASC_NODE,ARG_OF_PERICENTER,MEAN_ANOMALY,BSTAR,MEAN_MOTION_DOT,MEAN_MOTION_DDOT,TLE_LINE0,TLE_LINE1,TLE_LINE2,SEMIMAJOR_AXIS,PERIOD,APOGEE,PERIGEE,DECAYED
48148,STARLINK-2491,PAYLOAD,2021-05-28 14:00:01,15.24630898,0.00013700000000000002,53.0465,90.6876,72.156,167.8468,-0.050422,-0.01162452,0.0,0 STARLINK-2491,1 48148U 21027BJ  21148.58334491 -.01162452  00000-0 -50422-1 0  9997,2 48148  53.0465  90.6876 0001370  72.1560 167.8468 15.24630898  1803,6870.031,94.449,492.837,490.955,0.0
48148,STARLINK-2491,PAYLOAD,2021-05-28 22:00:00,15.23749229,0.0001328,53.0437,89.1367,81.2809,188.8343,-0.048181,-0.01073959,0.0,0 STARLINK-2491,1 48148U 21027BJ  21148.91667824 -.01073959  00000-0 -48181-1 0  9995,2 48148  53.0437  89.1367 0001328  81.2809 188.8343 15.23749229  1757,6872.681,94.50399999999999,495.459,493.63300000000004,0.0
48148,STARLINK-2491,PAYLOAD,2021-05-29 06:00:00,15.22915564,0.0001256,53.0461,87.5985,75.8535,223.3557,-0.048795,-0.01061939,0.0,0 STARLINK-2491,1 48148U 21027BJ  21149.25001157 -.01061939  00000-0 -48795-1 0  9990,2 48148  53.0461  87.5985 0001256  75.8535 223.3557 15.22915564  8932,6875.189,94.555,497.917,496.19,0.0
48148,STARLINK-2491,PAYLOAD,2021-05-29 12:00:00,15.223588500000002,0.0001385,53.0461,86.4489,74.4944,155.851,-0.05379199999999999,-0.01158975,0.0,0 STARLINK-2491,1 48148U 21027BJ  21149.50001157 -.01158975  00000-0 -53792-1 0  9998,2 48148  53.0461  86.4489 0001385  74.4944 155.8510 15.22358850  8961,6876.865,94.59,499.68199999999996,497.777,0.0
48148,STARLINK-2491,PAYLOAD,2021-05-29 14:00:01,15.22152813,0.000121,53.0454,86.0634,77.3797,249.9613,-0.054143,-0.01159356,0.0,0 STARLINK-2491,1 48148U 21027BJ  21149.58335648 -.01159356  00000-0 -54143-1 0  9996,2 48148  53.0454  86.0634 0001210  77.3797 249.9613 15.22152813  1767,6877.485,94.603,500.18199999999996,498.51800000000003,0.0
48148,STARLINK-2491,PAYLOAD,2021-05-29 22:00:00,15.213265400000001,0.000135,53.045,84.5244,55.721000000000004,298.6657,-0.055304,-0.01155922,0.0,0 STARLINK-2491,1 48148U 21027BJ  21149.91667824 -.01155922  00000-0 -55304-1 0  9992,2 48148  53.0450  84.5244 0001350  55.7210 298.6657 15.21326540  1766,6879.975,94.654,502.769,500.912,0.0
48148,STARLINK-2491,PAYLOAD,2021-05-30 04:00:00,15.20710432,0.00013969999999999998,53.045,83.381,60.6749,223.3904,-0.056348,-0.011565100000000002,0.0,0 STARLINK-2491,1 48148U 21027BJ  21150.16667824 -.01156510  00000-0 -56348-1 0  9994,2 48148  53.0450  83.3810 0001397  60.6749 223.3904 15.20710432  9073,6881.833000000001,94.693,504.66,502.73699999999997,0.0
48148,STARLINK-2491,PAYLOAD,2021-05-30 14:00:01,15.19681582,0.00012649999999999998,53.045,81.4656,72.7848,332.9105,-0.058047,-0.01155979,0.0,0 STARLINK-2491,1 48148U 21027BJ  21150.58335648 -.01155979  00000-0 -58047-1 0  9992,2 48148  53.0450  81.4656 0001265  72.7848 332.9105 15.19681582  1767,6884.939,94.757,507.675,505.93300000000005,0.0
48148,STARLINK-2491,PAYLOAD,2021-05-30 20:00:01,15.19065364,0.0001205,53.0452,80.3238,79.0588,254.7699,-0.059014,-0.01154402,0.0,0 STARLINK-2491,1 48148U 21027BJ  21150.83334491 -.01154402  00000-0 -59014-1 0  9990,2 48148  53.0452  80.3238 0001205  79.0588 254.7699 15.19065364  9174,6886.8009999999995,94.795,509.496,507.836,0.0
48148,STARLINK-2491,PAYLOAD,2021-05-30 22:00:00,15.18820395,0.0001388,53.0429,79.9357,75.9841,353.8069,-0.056462,-0.01100906,0.0,0 STARLINK-2491,1 48148U 21027BJ  21150.91667824 -.01100906  00000-0 -56462-1 0  9992,2 48148  53.0429  79.9357 0001388  75.9841 353.8069 15.18820395  1764,6887.541,94.81,510.36199999999997,508.45,0.0
48148,STARLINK-2491,PAYLOAD,2021-05-31 14:00:01,15.17216761,0.0001392,53.0444,76.8915,76.4894,38.6014,-0.062113999999999996,-0.01151886,0.0,0 STARLINK-2491,1 48148U 21027BJ  21151.58334491 -.01151886  00000-0 -62114-1 0  9991,2 48148  53.0444  76.8915 0001392  76.4894  38.6014 15.17216761  9284,6892.394,94.911,515.2180000000002,513.299,0.0
48148,STARLINK-2491,PAYLOAD,2021-05-31 22:00:00,15.16362632,0.00015030000000000002,53.0423,75.3671,82.45200000000001,53.8351,-0.060743,-0.01103041,0.0,0 STARLINK-2491,1 48148U 21027BJ  21151.91667824 -.01103041  00000-0 -60743-1 0  9993,2 48148  53.0423  75.3671 0001503  82.4520  53.8351 15.16362632  1767,6894.982,94.964,517.883,515.811,0.0
48148,STARLINK-2491,PAYLOAD,2021-06-01 06:00:00,15.15576616,0.00014280000000000006,53.0455,73.8501,93.0591,63.4067,-0.06489400000000001,-0.01148389,0.0,0 STARLINK-2491,1 48148U 21027BJ  21152.25001157 -.01148389  00000-0 -64894-1 0  9997,2 48148  53.0455  73.8501 0001428  93.0591  63.4067 15.15576616  9384,6897.366,95.01299999999999,520.216,518.246,0.0
48148,STARLINK-2491,PAYLOAD,2021-06-01 14:00:01,15.14759373,0.0001436,53.0457,72.3354,95.149,80.5911,-0.066387,-0.01147803,0.0,0 STARLINK-2491,1 48148U 21027BJ  21152.58335648 -.01147803  00000-0 -66387-1 0  9997,2 48148  53.0457  72.3354 0001436  95.1490  80.5911 15.14759373  1816,6899.846,95.065,522.702,520.72,0.0
48148,STARLINK-2491,PAYLOAD,2021-06-01 22:00:00,15.13941452,0.00014419999999999998,53.0439,70.8249,83.3132,110.5911,-0.067832,-0.01146026,0.0,0 STARLINK-2491,1 48148U 21027BJ  21152.91667824 -.01146026  00000-0 -67832-1 0  9990,2 48148  53.0439  70.8249 0001442  83.3132 110.5911 15.13941452  9486,6902.331,95.116,525.191,523.201,0.0
48148,STARLINK-2491,PAYLOAD,2021-06-02 14:00:01,15.12307598,0.0001401,53.0442,67.7956,83.9099,143.5065,-0.070882,-0.01143822,0.0,0 STARLINK-2491,1 48148U 21027BJ  21153.58334491 -.01143822  00000-0 -70882-1 0  9995,2 48148  53.0442  67.7956 0001401  83.9099 143.5065 15.12307598  9586,6907.302,95.219,530.134,528.1990000000002,0.0
48148,STARLINK-2491,PAYLOAD,2021-06-03 06:00:00,15.10693738,0.00013630000000000006,53.0407,64.7788,92.0721,164.9292,-0.077449,-0.01190575,0.0,0 STARLINK-2491,1 48148U 21027BJ  21154.25001157 -.01190575  00000-0 -77449-1 0  9993,2 48148  53.0407  64.7788 0001363  92.0721 164.9292 15.10693738  9690,6912.22,95.32,535.0269999999998,533.143,0.0
48148,STARLINK-2491,PAYLOAD,2021-06-03 14:00:01,15.09843857,0.000133,53.0409,63.2773,92.51,177.8785,-0.081596,-0.01222203,0.0,0 STARLINK-2491,1 48148U 21027BJ  21154.58335648 -.01222203  00000-0 -81596-1 0  9996,2 48148  53.0409  63.2773 0001330  92.5100 177.8785 15.09843857  1846,6914.814,95.374,537.5980000000002,535.759,0.0
48148,STARLINK-2491,PAYLOAD,2021-06-03 20:00:01,15.09187376,0.0001462,53.041000000000004,62.1559,88.2798,101.4205,-0.082991,-0.01220877,0.0,0 STARLINK-2491,1 48148U 21027BJ  21154.83335648 -.01220877  00000-0 -82991-1 0  9999,2 48148  53.0410  62.1559 0001462  88.2798 101.4205 15.09187376  9776,6916.819,95.416,539.695,537.673,0.0
48148,STARLINK-2491,PAYLOAD,2021-06-03 22:00:01,15.08968813,0.00013230000000000002,53.041000000000004,61.7828,92.2788,190.3936,-0.083463,-0.01220447,0.0,0 STARLINK-2491,1 48148U 21027BJ  21154.91668981 -.01220447  00000-0 -83463-1 0  9995,2 48148  53.0410  61.7828 0001323  92.2788 190.3936 15.08968813  1895,6917.486999999999,95.429,540.2669999999998,538.437,0.0
48148,STARLINK-2491,PAYLOAD,2021-06-04 14:00:03,15.07170944,0.0001306,53.0432,58.7644,85.3881,218.7925,-0.067334,-0.00944787,0.0,0 STARLINK-2491,1 48148U 21027BJ  21155.58336806 -.00944787  00000-0 -67334-1 0  9995,2 48148  53.0432  58.7644 0001306  85.3881 218.7925 15.07170944  1802,6922.986999999999,95.54299999999999,545.756,543.948,0.0
48148,STARLINK-2491,PAYLOAD,2021-06-04 20:00:01,15.06438386,0.0001361,53.0434,57.6426,83.3608,137.6975,-0.0047996,-0.00071135,0.0,0 STARLINK-2491,1 48148U 21027BJ  21155.83334491 -.00071135  00000-0 -47996-2 0  9992,2 48148  53.0434  57.6426 0001361  83.3608 137.6975 15.06438386  9927,6925.231,95.59,548.038,546.153,0.0
48148,STARLINK-2491,PAYLOAD,2021-06-04 22:00:00,15.06333974,0.00014,53.0433,57.2613,95.4254,217.8579,0.0057074,0.00085615,0.0,0 STARLINK-2491,1 48148U 21027BJ  21155.91667824  .00085615  00000-0  57074-2 0  9994,2 48148  53.0433  57.2613 0001400  95.4254 217.8579 15.06333974  1745,6925.5509999999995,95.596,548.386,546.446,0.0
48148,STARLINK-2491,PAYLOAD,2021-06-05 06:00:00,15.06394237,0.0001369,53.043,55.7645,95.9721,225.9507,-3.8163e-05,-8.5e-06,0.0,0 STARLINK-2491,1 48148U 21027BJ  21156.25001157 -.00000850  00000-0 -38163-4 0  9993,2 48148  53.0430  55.7645 0001369  95.9721 225.9507 15.06394237  9993,6925.366,95.59299999999999,548.179,546.283,0.0
48148,STARLINK-2491,PAYLOAD,2021-06-05 12:00:00,15.06441127,0.0001242,53.0471,54.6429,83.1733,155.4018,-0.0099512,-0.00145665,0.0,0 STARLINK-2491,1 48148U 21027BJ  21156.50001157 -.00145665  00000-0 -99512-2 0  9998,2 48148  53.0471  54.6429 0001242  83.1733 155.4018 15.06441127 10030,6925.223000000001,95.59,547.948,546.227,0.0
48148,STARLINK-2491,PAYLOAD,2021-06-05 14:00:01,15.06375133,0.0001291,53.0497,54.2683,87.8334,242.9925,0.001854,0.00027423,0.0,0 STARLINK-2491,1 48148U 21027BJ  21156.58335648  .00027423  00000-0  18540-2 0  9992,2 48148  53.0497  54.2683 0001291  87.8334 242.9925 15.06375133  1759,6925.425,95.594,548.184,546.396,0.0
48148,STARLINK-2491,PAYLOAD,2021-06-05 20:00:01,15.06405219,0.00013769999999999999,53.0509,53.1466,86.2686,161.0486,-0.0016672,-0.00025031,0.0,0 STARLINK-2491,1 48148U 21027BJ  21156.83335648 -.00025031  00000-0 -16672-2 0  9999,2 48148  53.0509  53.1466 0001377  86.2686 161.0486 15.06405219 10086,6925.333000000001,95.59200000000001,548.151,546.244,0.0
48148,STARLINK-2491,PAYLOAD,2021-06-05 22:00:00,15.06402857,0.00013869999999999998,53.0509,52.773,82.6174,256.8073,-0.0018396,-0.00027579,0.0,0 STARLINK-2491,1 48148U 21027BJ  21156.91667824 -.00027579  00000-0 -18396-2 0  9996,2 48148  53.0509  52.7730 0001387  82.6174 256.8073 15.06402857  1808,6925.34,95.59200000000001,548.165,546.244,0.0
